HAWK-12A                
1 64623U 25138C   26189.92290541  .00002426  00000+0  12102-3 0  9990
2 64623  97.4413 192.3399 0015514  66.1755 294.1104 15.18374948 57163
HAWK-13A                
1 67392U 26004AF  26190.72026514  .00002817  00000+0  13657-3 0  9996
2 67392  97.4443 189.2704 0003746 245.1003 114.9842 15.19330591 27180
HAWK-13C                
1 67393U 26004AG  26190.78597580  .00002745  00000+0  13318-3 0  9993
2 67393  97.4589 189.7488 0003610 249.3117 110.7730 15.19330961 27190
HAWK-13B                
1 67396U 26004AK  26190.78588431  .00002735  00000+0  13271-3 0  9998
2 67396  97.4529 189.5763 0004908 248.8691 111.2019 15.19330202 27197
HAWK-14B                
1 68436U 26067W   26189.83210197  .00002961  00000+0  14726-3 0  9995
2 68436  97.4554 147.9724 0002270  18.6098 341.5218 15.18398257 15223
HAWK-14C                
1 68441U 26067AB  26190.62301227  .00003076  00000+0  15281-3 0  9990
2 68441  97.4490 148.6369 0003179  38.2811 321.8648 15.18405678 15348
HAWK-14A                
1 68448U 26067AJ  26189.96413321  .00003164  00000+0  15712-3 0  9998
2 68448  97.4616 148.2238 0003924  32.2591 327.8883 15.18397986 15241
