{"fetched_at":"2026-07-10T07:59:03.597Z","source":"https://celestrak.org/NORAD/elements/gp.php?NAME=HAWK&FORMAT=JSON","constellation":"hawkeye-360","records":[{"OBJECT_NAME":"HAWK-12A","OBJECT_ID":"2025-138C","EPOCH":"2026-07-08T22:08:59.027424","CLASSIFICATION_TYPE":"U","MEAN_MOTION":15.18374948,"ECCENTRICITY":0.00155146,"INCLINATION":97.4413,"RA_OF_ASC_NODE":192.3399,"ARG_OF_PERICENTER":66.1755,"MEAN_ANOMALY":294.1104,"EPHEMERIS_TYPE":0,"NORAD_CAT_ID":64623,"ELEMENT_SET_NO":999,"REV_AT_EPOCH":5716,"BSTAR":0.0001210198,"MEAN_MOTION_DOT":0.00002426,"MEAN_MOTION_DDOT":0},{"OBJECT_NAME":"HAWK-13A","OBJECT_ID":"2026-004AF","EPOCH":"2026-07-09T17:17:10.908096","CLASSIFICATION_TYPE":"U","MEAN_MOTION":15.19330591,"ECCENTRICITY":0.0003746,"INCLINATION":97.4443,"RA_OF_ASC_NODE":189.2704,"ARG_OF_PERICENTER":245.1003,"MEAN_ANOMALY":114.9842,"EPHEMERIS_TYPE":0,"NORAD_CAT_ID":67392,"ELEMENT_SET_NO":999,"REV_AT_EPOCH":2718,"BSTAR":0.00013657,"MEAN_MOTION_DOT":0.00002817,"MEAN_MOTION_DDOT":0},{"OBJECT_NAME":"HAWK-13C","OBJECT_ID":"2026-004AG","EPOCH":"2026-07-09T18:51:48.309120","CLASSIFICATION_TYPE":"U","MEAN_MOTION":15.19330961,"ECCENTRICITY":0.000361,"INCLINATION":97.4589,"RA_OF_ASC_NODE":189.7488,"ARG_OF_PERICENTER":249.3117,"MEAN_ANOMALY":110.773,"EPHEMERIS_TYPE":0,"NORAD_CAT_ID":67393,"ELEMENT_SET_NO":999,"REV_AT_EPOCH":2719,"BSTAR":0.00013318,"MEAN_MOTION_DOT":0.00002745,"MEAN_MOTION_DDOT":0},{"OBJECT_NAME":"HAWK-13B","OBJECT_ID":"2026-004AK","EPOCH":"2026-07-09T18:51:40.404384","CLASSIFICATION_TYPE":"U","MEAN_MOTION":15.19330202,"ECCENTRICITY":0.0004908,"INCLINATION":97.4529,"RA_OF_ASC_NODE":189.5763,"ARG_OF_PERICENTER":248.8691,"MEAN_ANOMALY":111.2019,"EPHEMERIS_TYPE":0,"NORAD_CAT_ID":67396,"ELEMENT_SET_NO":999,"REV_AT_EPOCH":2719,"BSTAR":0.00013271,"MEAN_MOTION_DOT":0.00002735,"MEAN_MOTION_DDOT":0},{"OBJECT_NAME":"HAWK-14B","OBJECT_ID":"2026-067W","EPOCH":"2026-07-08T19:58:13.610208","CLASSIFICATION_TYPE":"U","MEAN_MOTION":15.18398257,"ECCENTRICITY":0.00022704,"INCLINATION":97.4554,"RA_OF_ASC_NODE":147.9724,"ARG_OF_PERICENTER":18.6098,"MEAN_ANOMALY":341.5218,"EPHEMERIS_TYPE":0,"NORAD_CAT_ID":68436,"ELEMENT_SET_NO":999,"REV_AT_EPOCH":1522,"BSTAR":0.00014725924,"MEAN_MOTION_DOT":0.00002961,"MEAN_MOTION_DDOT":0},{"OBJECT_NAME":"HAWK-14C","OBJECT_ID":"2026-067AB","EPOCH":"2026-07-09T14:57:08.260128","CLASSIFICATION_TYPE":"U","MEAN_MOTION":15.18405678,"ECCENTRICITY":0.0003179,"INCLINATION":97.449,"RA_OF_ASC_NODE":148.6369,"ARG_OF_PERICENTER":38.2811,"MEAN_ANOMALY":321.8648,"EPHEMERIS_TYPE":0,"NORAD_CAT_ID":68441,"ELEMENT_SET_NO":999,"REV_AT_EPOCH":1534,"BSTAR":0.00015281,"MEAN_MOTION_DOT":0.00003076,"MEAN_MOTION_DDOT":0},{"OBJECT_NAME":"HAWK-14A","OBJECT_ID":"2026-067AJ","EPOCH":"2026-07-08T23:08:21.109344","CLASSIFICATION_TYPE":"U","MEAN_MOTION":15.18397986,"ECCENTRICITY":0.00039241,"INCLINATION":97.4616,"RA_OF_ASC_NODE":148.2238,"ARG_OF_PERICENTER":32.2591,"MEAN_ANOMALY":327.8883,"EPHEMERIS_TYPE":0,"NORAD_CAT_ID":68448,"ELEMENT_SET_NO":999,"REV_AT_EPOCH":1524,"BSTAR":0.00015712151,"MEAN_MOTION_DOT":0.00003164,"MEAN_MOTION_DDOT":0}]}
